CCSDS_OMM_VERS = 2.0
CREATION_DATE  = 
ORIGINATOR     = 

OBJECT_NAME    = SL-16 R/B
OBJECT_ID      = 1993-016B
CENTER_NAME    = EARTH
REF_FRAME      = TEME
TIME_SYSTEM    = UTC
MEAN_ELEMENT_THEORY = SGP/SGP4

EPOCH          = 2026-01-25T04:07:42.439872
MEAN_MOTION    = 14.15297892
ECCENTRICITY   = .0009303
INCLINATION    = 71.0088
RA_OF_ASC_NODE = 306.5841
ARG_OF_PERICENTER = 17.8548
MEAN_ANOMALY   = 342.2900

EPHEMERIS_TYPE = 0
CLASSIFICATION_TYPE = U
NORAD_CAT_ID   = 22566
ELEMENT_SET_NO = 999
REV_AT_EPOCH   = 69601
BSTAR          = .22897E-3
MEAN_MOTION_DOT = .398E-5
MEAN_MOTION_DDOT = 0

CCSDS_OMM_VERS = 2.0
CREATION_DATE  = 
ORIGINATOR     = 

OBJECT_NAME    = COSMOS 2242
OBJECT_ID      = 1993-024A
CENTER_NAME    = EARTH
REF_FRAME      = TEME
TIME_SYSTEM    = UTC
MEAN_ELEMENT_THEORY = SGP/SGP4

EPOCH          = 2026-01-25T05:45:08.159328
MEAN_MOTION    = 14.96341725
ECCENTRICITY   = .0018123
INCLINATION    = 82.5205
RA_OF_ASC_NODE = 308.2669
ARG_OF_PERICENTER = 90.7376
MEAN_ANOMALY   = 269.5923

EPHEMERIS_TYPE = 0
CLASSIFICATION_TYPE = U
NORAD_CAT_ID   = 22626
ELEMENT_SET_NO = 999
REV_AT_EPOCH   = 77389
BSTAR          = .31719E-3
MEAN_MOTION_DOT = .3625E-4
MEAN_MOTION_DDOT = 0

CCSDS_OMM_VERS = 2.0
CREATION_DATE  = 
ORIGINATOR     = 

OBJECT_NAME    = SL-16 R/B
OBJECT_ID      = 1993-059B
CENTER_NAME    = EARTH
REF_FRAME      = TEME
TIME_SYSTEM    = UTC
MEAN_ELEMENT_THEORY = SGP/SGP4

EPOCH          = 2026-01-25T11:49:40.807488
MEAN_MOTION    = 14.17223676
ECCENTRICITY   = .0019583
INCLINATION    = 70.9906
RA_OF_ASC_NODE = 102.2246
ARG_OF_PERICENTER = 275.3061
MEAN_ANOMALY   = 84.5828

EPHEMERIS_TYPE = 0
CLASSIFICATION_TYPE = U
NORAD_CAT_ID   = 22803
ELEMENT_SET_NO = 999
REV_AT_EPOCH   = 67341
BSTAR          = -.48003E-4
MEAN_MOTION_DOT = -.145E-5
MEAN_MOTION_DDOT = 0

CCSDS_OMM_VERS = 2.0
CREATION_DATE  = 
ORIGINATOR     = 

OBJECT_NAME    = ARIANE 40 R/B
OBJECT_ID      = 1993-061H
CENTER_NAME    = EARTH
REF_FRAME      = TEME
TIME_SYSTEM    = UTC
MEAN_ELEMENT_THEORY = SGP/SGP4

EPOCH          = 2026-01-25T04:39:07.637760
MEAN_MOTION    = 14.32835439
ECCENTRICITY   = .0011553
INCLINATION    = 98.5006
RA_OF_ASC_NODE = 94.9198
ARG_OF_PERICENTER = 57.0963
MEAN_ANOMALY   = 303.1332

EPHEMERIS_TYPE = 0
CLASSIFICATION_TYPE = U
NORAD_CAT_ID   = 22830
ELEMENT_SET_NO = 999
REV_AT_EPOCH   = 68787
BSTAR          = .18495E-3
MEAN_MOTION_DOT = .462E-5
MEAN_MOTION_DDOT = 0

CCSDS_OMM_VERS = 2.0
CREATION_DATE  = 
ORIGINATOR     = 

OBJECT_NAME    = COSMOS 2278
OBJECT_ID      = 1994-023A
CENTER_NAME    = EARTH
REF_FRAME      = TEME
TIME_SYSTEM    = UTC
MEAN_ELEMENT_THEORY = SGP/SGP4

EPOCH          = 2026-01-25T09:14:46.410432
MEAN_MOTION    = 14.14367123
ECCENTRICITY   = .0006298
INCLINATION    = 71.0531
RA_OF_ASC_NODE = 265.6990
ARG_OF_PERICENTER = 95.9763
MEAN_ANOMALY   = 264.2077

EPHEMERIS_TYPE = 0
CLASSIFICATION_TYPE = U
NORAD_CAT_ID   = 23087
ELEMENT_SET_NO = 999
REV_AT_EPOCH   = 63868
BSTAR          = -.26852E-5
MEAN_MOTION_DOT = -.52E-6
MEAN_MOTION_DDOT = 0

CCSDS_OMM_VERS = 2.0
CREATION_DATE  = 
ORIGINATOR     = 

OBJECT_NAME    = SL-16 R/B
OBJECT_ID      = 1994-023B
CENTER_NAME    = EARTH
REF_FRAME      = TEME
TIME_SYSTEM    = UTC
MEAN_ELEMENT_THEORY = SGP/SGP4

EPOCH          = 2026-01-25T12:31:46.730496
MEAN_MOTION    = 14.15006894
ECCENTRICITY   = .0004122
INCLINATION    = 71.0002
RA_OF_ASC_NODE = 161.5426
ARG_OF_PERICENTER = 325.5576
MEAN_ANOMALY   = 34.5279

EPHEMERIS_TYPE = 0
CLASSIFICATION_TYPE = U
NORAD_CAT_ID   = 23088
ELEMENT_SET_NO = 999
REV_AT_EPOCH   = 63998
BSTAR          = -.27362E-4
MEAN_MOTION_DOT = -.101E-5
MEAN_MOTION_DDOT = 0

CCSDS_OMM_VERS = 2.0
CREATION_DATE  = 
ORIGINATOR     = 

OBJECT_NAME    = SL-16 R/B
OBJECT_ID      = 1994-074B
CENTER_NAME    = EARTH
REF_FRAME      = TEME
TIME_SYSTEM    = UTC
MEAN_ELEMENT_THEORY = SGP/SGP4

EPOCH          = 2026-01-25T12:37:07.677120
MEAN_MOTION    = 14.79351507
ECCENTRICITY   = .0006821
INCLINATION    = 97.7162
RA_OF_ASC_NODE = 58.0816
ARG_OF_PERICENTER = 14.7466
MEAN_ANOMALY   = 153.7919

EPHEMERIS_TYPE = 0
CLASSIFICATION_TYPE = U
NORAD_CAT_ID   = 23343
ELEMENT_SET_NO = 999
REV_AT_EPOCH   = 68086
BSTAR          = .12321E-3
MEAN_MOTION_DOT = .869E-5
MEAN_MOTION_DDOT = 0

CCSDS_OMM_VERS = 2.0
CREATION_DATE  = 
ORIGINATOR     = 

OBJECT_NAME    = SL-16 R/B
OBJECT_ID      = 1994-077B
CENTER_NAME    = EARTH
REF_FRAME      = TEME
TIME_SYSTEM    = UTC
MEAN_ELEMENT_THEORY = SGP/SGP4

EPOCH          = 2026-01-25T12:29:34.662048
MEAN_MOTION    = 14.15558874
ECCENTRICITY   = .0004825
INCLINATION    = 70.9828
RA_OF_ASC_NODE = 83.3114
ARG_OF_PERICENTER = 250.9339
MEAN_ANOMALY   = 109.1262

EPHEMERIS_TYPE = 0
CLASSIFICATION_TYPE = U
NORAD_CAT_ID   = 23405
ELEMENT_SET_NO = 999
REV_AT_EPOCH   = 61012
BSTAR          = -.27864E-4
MEAN_MOTION_DOT = -.102E-5
MEAN_MOTION_DDOT = 0

CCSDS_OMM_VERS = 2.0
CREATION_DATE  = 
ORIGINATOR     = 

OBJECT_NAME    = ARIANE 40+ R/B
OBJECT_ID      = 1995-021B
CENTER_NAME    = EARTH
REF_FRAME      = TEME
TIME_SYSTEM    = UTC
MEAN_ELEMENT_THEORY = SGP/SGP4

EPOCH          = 2026-01-25T04:07:22.063296
MEAN_MOTION    = 14.39737071
ECCENTRICITY   = .0005616
INCLINATION    = 98.4584
RA_OF_ASC_NODE = 97.2245
ARG_OF_PERICENTER = 271.8914
MEAN_ANOMALY   = 142.5824

EPHEMERIS_TYPE = 0
CLASSIFICATION_TYPE = U
NORAD_CAT_ID   = 23561
ELEMENT_SET_NO = 999
REV_AT_EPOCH   = 61298
BSTAR          = .20735E-3
MEAN_MOTION_DOT = .606E-5
MEAN_MOTION_DDOT = 0

CCSDS_OMM_VERS = 2.0
CREATION_DATE  = 
ORIGINATOR     = 

OBJECT_NAME    = SL-16 R/B
OBJECT_ID      = 1995-058B
CENTER_NAME    = EARTH
REF_FRAME      = TEME
TIME_SYSTEM    = UTC
MEAN_ELEMENT_THEORY = SGP/SGP4

EPOCH          = 2026-01-25T09:13:02.398656
MEAN_MOTION    = 14.15488529
ECCENTRICITY   = .0013101
INCLINATION    = 71.0204
RA_OF_ASC_NODE = 271.1756
ARG_OF_PERICENTER = 195.8944
MEAN_ANOMALY   = 164.1770

EPHEMERIS_TYPE = 0
CLASSIFICATION_TYPE = U
NORAD_CAT_ID   = 23705
ELEMENT_SET_NO = 999
REV_AT_EPOCH   = 56172
BSTAR          = -.70129E-4
MEAN_MOTION_DOT = -.185E-5
MEAN_MOTION_DDOT = 0

CCSDS_OMM_VERS = 2.0
CREATION_DATE  = 
ORIGINATOR     = 

OBJECT_NAME    = SL-16 R/B
OBJECT_ID      = 1996-051B
CENTER_NAME    = EARTH
REF_FRAME      = TEME
TIME_SYSTEM    = UTC
MEAN_ELEMENT_THEORY = SGP/SGP4

EPOCH          = 2026-01-25T02:45:35.699328
MEAN_MOTION    = 14.12403474
ECCENTRICITY   = .00184802
INCLINATION    = 70.7578
RA_OF_ASC_NODE = 267.4733
ARG_OF_PERICENTER = 207.5879
MEAN_ANOMALY   = 152.4262

EPHEMERIS_TYPE = 0
CLASSIFICATION_TYPE = U
NORAD_CAT_ID   = 24298
ELEMENT_SET_NO = 999
REV_AT_EPOCH   = 51549
BSTAR          = .72043152E-4
MEAN_MOTION_DOT = .84E-6
MEAN_MOTION_DDOT = 0

CCSDS_OMM_VERS = 2.0
CREATION_DATE  = 
ORIGINATOR     = 

OBJECT_NAME    = ORBVIEW 2 (SEASTAR)
OBJECT_ID      = 1997-037A
CENTER_NAME    = EARTH
REF_FRAME      = TEME
TIME_SYSTEM    = UTC
MEAN_ELEMENT_THEORY = SGP/SGP4

EPOCH          = 2026-01-25T09:52:06.174048
MEAN_MOTION    = 14.35457904
ECCENTRICITY   = .0002351
INCLINATION    = 98.8494
RA_OF_ASC_NODE = 188.5946
ARG_OF_PERICENTER = 163.7987
MEAN_ANOMALY   = 196.3273

EPHEMERIS_TYPE = 0
CLASSIFICATION_TYPE = U
NORAD_CAT_ID   = 24883
ELEMENT_SET_NO = 999
REV_AT_EPOCH   = 50226
BSTAR          = .23237E-3
MEAN_MOTION_DOT = .621E-5
MEAN_MOTION_DDOT = 0

