SL-16 R/B               
1 22566U 93016B   26025.17201898  .00000398  00000+0  22897-3 0  9991
2 22566  71.0088 306.5841 0009303  17.8548 342.2900 14.15297892696012
COSMOS 2242             
1 22626U 93024A   26025.23967777  .00003625  00000+0  31719-3 0  9998
2 22626  82.5205 308.2669 0018123  90.7376 269.5923 14.96341725773895
SL-16 R/B               
1 22803U 93059B   26025.49283342 -.00000145  00000+0 -48003-4 0  9991
2 22803  70.9906 102.2246 0019583 275.3061  84.5828 14.17223676673410
ARIANE 40 R/B           
1 22830U 93061H   26025.19383840  .00000462  00000+0  18495-3 0  9996
2 22830  98.5006  94.9198 0011553  57.0963 303.1332 14.32835439687873
COSMOS 2278             
1 23087U 94023A   26025.38525938 -.00000052  00000+0 -26852-5 0  9992
2 23087  71.0531 265.6990 0006298  95.9763 264.2077 14.14367123638681
SL-16 R/B               
1 23088U 94023B   26025.52206864 -.00000101  00000+0 -27362-4 0  9994
2 23088  71.0002 161.5426 0004122 325.5576  34.5279 14.15006894639983
SL-16 R/B               
1 23343U 94074B   26025.52578330  .00000869  00000+0  12321-3 0  9991
2 23343  97.7162  58.0816 0006821  14.7466 153.7919 14.79351507680867
SL-16 R/B               
1 23405U 94077B   26025.52054007 -.00000102  00000+0 -27864-4 0  9994
2 23405  70.9828  83.3114 0004825 250.9339 109.1262 14.15558874610129
ARIANE 40+ R/B          
1 23561U 95021B   26025.17178314  .00000606  00000+0  20735-3 0  9992
2 23561  98.4584  97.2245 0005616 271.8914 142.5824 14.39737071612980
SL-16 R/B               
1 23705U 95058B   26025.38405554 -.00000185  00000+0 -70129-4 0  9991
2 23705  71.0204 271.1756 0013101 195.8944 164.1770 14.15488529561722
SL-16 R/B               
1 24298U 96051B   26025.11499652  .00000084  00000+0  72043-4 0  9999
2 24298  70.7578 267.4733 0018480 207.5879 152.4262 14.12403474515498
ORBVIEW 2 (SEASTAR)     
1 24883U 97037A   26025.41118257  .00000621  00000+0  23237-3 0  9993
2 24883  98.8494 188.5946 0002351 163.7987 196.3273 14.35457904502260
